H1 CPF  1  DGF 2022 05 30 10  6501 larets     NONE      
H2   304206 5557    27944 2022 05 23 00 00 00 2022 05 30 00 00 00    30 1 1  0 0 0
H5  0.0650
H9
10 0 59724  28800.000000  0       -432378.111      -5764448.207       4037984.525
10 0 59724  28830.000000  0       -474124.527      -5630529.541       4218019.012
10 0 59724  28860.000000  0       -514789.772      -5490702.559       4393730.789
10 0 59724  28890.000000  0       -554307.036      -5345115.240       4564940.476
10 0 59724  28920.000000  0       -592611.354      -5193921.699       4731473.391
10 0 59724  28950.000000  0       -629639.698      -5037282.022       4893159.724
10 0 59724  28980.000000  0       -665331.064      -4875362.084       5049834.714
10 0 59724  29010.000000  0       -699626.563      -4708333.364       5201338.816
10 0 59724  29040.000000  0       -732469.503      -4536372.753       5347517.859
10 0 59724  29070.000000  0       -763805.466      -4359662.353       5488223.204
10 0 59724  29100.000000  0       -793582.390      -4178389.276       5623311.895
10 0 59724  29130.000000  0       -821750.639      -3992745.428       5752646.791
10 0 59724  29160.000000  0       -848263.073      -3802927.298       5876096.708
10 0 59724  29190.000000  0       -873075.115      -3609135.741       5993536.536
10 0 59724  29220.000000  0       -896144.811      -3411575.754       6104847.364
10 0 59724  29250.000000  0       -917432.889      -3210456.254       6209916.588
10 0 59724  29280.000000  0       -936902.815      -3005989.851       6308638.018
10 0 59724  29310.000000  0       -954520.841      -2798392.618       6400911.974
10 0 59724  29340.000000  0       -970256.055      -2587883.861       6486645.383
10 0 59724  29370.000000  0       -984080.420      -2374685.884       6565751.869
10 0 59724  29400.000000  0       -995968.817      -2159023.750       6638151.831
10 0 59724  29430.000000  0      -1005899.080      -1941125.039       6703772.517
10 0 59724  29460.000000  0      -1013852.025      -1721219.607       6762548.097
10 0 59724  29490.000000  0      -1019811.480      -1499539.337       6814419.721
10 0 59724  29520.000000  0      -1023764.312      -1276317.893       6859335.572
10 0 59724  29550.000000  0      -1025700.441      -1051790.470       6897250.910
10 0 59724  29580.000000  0      -1025612.860       -826193.545       6928128.114
10 0 59724  29610.000000  0      -1023497.646       -599764.629       6951936.710
10 0 59724  29640.000000  0      -1019353.966       -372742.014       6968653.399
10 0 59724  29670.000000  0      -1013184.077       -145364.527       6978262.075
10 0 59724  29700.000000  0      -1004993.329         82128.723       6980753.842
10 0 59724  29730.000000  0       -994790.156        309498.602       6976127.013
10 0 59724  29760.000000  0       -982586.067        536506.197       6964387.113
10 0 59724  29790.000000  0       -968395.632        762913.066       6945546.866
10 0 59724  29820.000000  0       -952236.462        988481.493       6919626.183
10 0 59724  29850.000000  0       -934129.191       1212974.731       6886652.134
10 0 59724  29880.000000  0       -914097.446       1436157.249       6846658.928
10 0 59724  29910.000000  0       -892167.817       1657794.986       6799687.870
10 0 59724  29940.000000  0       -868369.826       1877655.589       6745787.320
10 0 59724  29970.000000  0       -842735.889       2095508.659       6685012.647
10 0 59724  30000.000000  0       -815301.268       2311125.988       6617426.165
10 0 59724  30030.000000  0       -786104.033       2524281.799       6543097.081
10 0 59724  30060.000000  0       -755185.012       2734752.982       6462101.424
10 0 59724  30090.000000  0       -722587.733       2942319.331       6374521.970
10 0 59724  30120.000000  0       -688358.374       3146763.777       6280448.158
10 0 59724  30150.000000  0       -652545.701       3347872.611       6179976.000
10 0 59724  30180.000000  0       -615200.999       3545435.712       6073207.989
10 0 59724  30210.000000  0       -576378.011       3739246.765       5960252.991
10 0 59724  30240.000000  0       -536132.865       3929103.477       5841226.146
10 0 59724  30270.000000  0       -494523.997       4114807.794       5716248.751
10 0 59724  30300.000000  0       -451612.076       4296166.105       5585448.141
10 0 59724  30330.000000  0       -407459.927       4472989.450       5448957.569
10 0 59724  30360.000000  0       -362132.440       4645093.725       5306916.073
10 0 59724  30390.000000  0       -315696.492       4812299.881       5159468.340
10 0 59724  30420.000000  0       -268220.849       4974434.115       5006764.552
10 0 59724  30450.000000  0       -219776.080       5131328.056       4848960.241
10 0 59724  30480.000000  0       -170434.453       5282818.942       4686216.124
10 0 59724  30510.000000  0       -120269.844       5428749.789       4518697.940
10 0 59724  30540.000000  0        -69357.633       5568969.549       4346576.288
10 0 59724  30570.000000  0        -17774.606       5703333.270       4170026.460
10 0 59724  30600.000000  0         34401.152       5831702.252       3989228.278
10 0 59724  30630.000000  0         87090.357       5953944.204       3804365.917
10 0 59724  30660.000000  0        140212.638       6069933.398       3615627.720
10 0 59724  30690.000000  0        193686.647       6179550.810       3423206.004
10 0 59724  30720.000000  0        247430.171       6282684.257       3227296.859
10 0 59724  30750.000000  0        301360.252       6379228.525       3028099.937
10 0 59724  30780.000000  0        355393.303       6469085.464       2825818.231
10 0 59724  30810.000000  0        409445.227       6552164.088       2620657.876
10 0 59724  30840.000000  0        463431.531       6628380.661       2412827.942
10 0 59724  30870.000000  0        517267.442       6697658.800       2202540.224
10 0 59724  30900.000000  0        570868.025       6759929.555       1990009.019
10 0 59724  30930.000000  0        624148.307       6815131.482       1775450.901
10 0 59724  30960.000000  0        677023.392       6863210.704       1559084.496
10 0 59724  30990.000000  0        729408.589       6904120.961       1341130.258
10 0 59724  31020.000000  0        781219.528       6937823.659       1121810.240
10 0 59724  31050.000000  0        832372.281       6964287.908        901347.867
10 0 59724  31080.000000  0        882783.482       6983490.552        679967.703
10 0 59724  31110.000000  0        932370.446       6995416.188        457895.214
10 0 59724  31140.000000  0        981051.289       7000057.177        235356.537
10 0 59724  31170.000000  0       1028745.044       6997413.645         12578.242
10 0 59724  31200.000000  0       1075371.776       6987493.471       -210212.903
10 0 59724  31230.000000  0       1120852.698       6970312.276       -432790.162
10 0 59724  31260.000000  0       1165110.284       6945893.398       -654927.067
10 0 59724  31290.000000  0       1208068.381       6914267.857       -876397.653
10 0 59724  31320.000000  0       1249652.317       6875474.316      -1096976.691
10 0 59724  31350.000000  0       1289789.013       6829559.028      -1316439.917
10 0 59724  31380.000000  0       1328407.088       6776575.781      -1534564.269
10 0 59724  31410.000000  0       1365436.960       6716585.830      -1751128.111
10 0 59724  31440.000000  0       1400810.955       6649657.820      -1965911.462
10 0 59724  31470.000000  0       1434463.400       6575867.704      -2178696.224
10 0 59724  31500.000000  0       1466330.724       6495298.650      -2389266.401
10 0 59724  31530.000000  0       1496351.549       6408040.944      -2597408.325
10 0 59724  31560.000000  0       1524466.788       6314191.877      -2802910.869
10 0 59724  31590.000000  0       1550619.726       6213855.636      -3005565.665
10 0 59724  31620.000000  0       1574756.110       6107143.176      -3205167.310
10 0 59724  31650.000000  0       1596824.231       5994172.094      -3401513.580
10 0 59724  31680.000000  0       1616775.004       5875066.487      -3594405.629
10 0 59724  31710.000000  0       1634562.042       5749956.814      -3783648.189
10 0 59724  31740.000000  0       1650141.731       5618979.738      -3969049.768
10 0 59724  31770.000000  0       1663473.297       5482277.976      -4150422.836
10 0 59724  31800.000000  0       1674518.871       5340000.128      -4327584.011
10 0 59724  31830.000000  0       1683243.553       5192300.513      -4500354.240
10 0 59724  31860.000000  0       1689615.464       5039338.996      -4668558.973
10 0 59724  31890.000000  0       1693605.803       4881280.802      -4832028.336
10 0 59724  31920.000000  0       1695188.898       4718296.341      -4990597.289
10 0 59724  31950.000000  0       1694342.247       4550561.011      -5144105.792
10 0 59724  31980.000000  0       1691046.568       4378255.014      -5292398.955
10 0 59724  32010.000000  0       1685285.827       4201563.153      -5435327.192
10 0 59724  32040.000000  0       1677047.284       4020674.635      -5572746.362
10 0 59724  32070.000000  0       1666321.512       3835782.860      -5704517.916
10 0 59724  32100.000000  0       1653102.429       3647085.207      -5830509.019
10 0 59724  32130.000000  0       1637387.313       3454782.829      -5950592.678
10 0 59724  32160.000000  0       1619176.825       3259080.427      -6064647.863
10 0 59724  32190.000000  0       1598475.017       3060186.039      -6172559.619
10 0 59724  32220.000000  0       1575289.343       2858310.817      -6274219.174
10 0 59724  32250.000000  0       1549630.661       2653668.801      -6369524.038
10 0 59724  32280.000000  0       1521513.239       2446476.697      -6458378.101
10 0 59724  32310.000000  0       1490954.746       2236953.650      -6540691.719
10 0 59724  32340.000000  0       1457976.251       2025321.018      -6616381.804
10 0 59724  32370.000000  0       1422602.209       1811802.139      -6685371.900
99
